ONEWEB-0226             
1 48793U 21045AC  23250.81361245  .00000163  00000+0  39993-3 0  9990
2 48793  87.8951 100.9946 0002154 101.9178 258.2194 13.15549048111115
ONEWEB-0224             
1 48794U 21045AD  23250.85586981 -.00000035  00000+0 -12692-3 0  9998
2 48794  87.8963 100.9881 0002042  65.5954 294.5389 13.15548095111042
ONEWEB-0233             
1 48795U 21045AE  23250.84939092 -.00000070  00000+0 -21969-3 0  9999
2 48795  87.8905 101.0638 0001895  81.4155 278.7190 13.15546435111057
ONEWEB-0190             
1 48796U 21045AF  23250.84741741 -.00000113  00000+0 -33494-3 0  9996
2 48796  87.8946 100.9850 0002812  98.0992 262.0457 13.15545780111133
ONEWEB-0236             
1 48797U 21045AG  23250.56008065  .00000100  00000+0  23160-3 0  9994
2 48797  87.8950 101.0146 0001803  81.4022 278.7312 13.15550885110986
ONEWEB-0248             
1 48798U 21045AH  23250.57277609  .00000256  00000+0  64551-3 0  9999
2 48798  87.8949 101.0272 0002599  80.7621 279.3803 13.15548770111146
ONEWEB-0225             
1 48799U 21045AJ  23250.82206690  .00000118  00000+0  27906-3 0  9990
2 48799  87.8948 100.9891 0002345  90.9441 269.1958 13.15549758111182
ONEWEB-0215             
1 48800U 21045AK  23250.56429903  .00000041  00000+0  75813-4 0  9994
2 48800  87.8947 101.0170 0002755  87.1065 273.0380 13.15550385112149
